MEASAT-3A               
1 35362U 09032A   23206.58223847 -.00000227  00000+0  00000+0 0  9995
2 35362   0.0423 232.0048 0002502 301.8390  70.2881  1.00270681 51649
GOES 14                 
1 35491U 09033A   23207.56144109 -.00000051  00000+0  00000+0 0  9996
2 35491   0.4241 102.1606 0005351 345.6174 309.7286  1.00272059 51518
FM-5                    
1 35493U 09034A   23206.54681552 -.00000185  00000+0  00000+0 0  9992
2 35493   0.0164 318.9356 0000256 271.8970 182.8600  1.00270498 36026
TERRESTAR-1             
1 35496U 09035A   23207.63828205 -.00000044  00000+0  00000+0 0  9999
2 35496   3.8302  44.8651 0002678  84.8356 293.1318  1.00271911 51566
COSMOS 2451             
1 35498U 09036A   23207.85527987  .00000037  00000+0  20122-3 0  9991
2 35498  82.4879  27.7858 0006803 352.1538   7.9432 12.40838868636637
COSMOS 2453             
1 35500U 09036C   23207.89744966  .00000038  00000+0  20569-3 0  9993
2 35500  82.4886  24.0757 0006424 308.8933  51.1572 12.41483690636909
DEIMOS-1                
1 35681U 09041A   23207.84504207  .00000686  00000+0  11497-3 0  9995
2 35681  97.6838  42.4415 0002103  46.7034 313.4350 14.72598956751273
DUBAISAT-1              
1 35682U 09041B   23207.39756780  .00001282  00000+0  22061-3 0  9993
2 35682  97.8605 349.2513 0010432 213.7234 146.3310 14.70189605749548
UK-DMC 2                
1 35683U 09041C   23207.87926502  .00001074  00000+0  17756-3 0  9992
2 35683  97.7379   5.1346 0001722  84.8018 275.3386 14.72238470750935
APRIZESAT 4             
1 35684U 09041D   23207.80761364  .00001142  00000+0  15416-3 0  9996
2 35684  98.2818 239.8887 0047135 132.5517 227.9688 14.80450989754874
NANOSAT 1B              
1 35685U 09041E   23207.16078798  .00001780  00000+0  20362-3 0  9992
2 35685  98.1213 284.2713 0057169  30.0890 330.3588 14.86183987757046
APRIZESAT 3             
1 35686U 09041F   23207.50412753  .00001599  00000+0  16778-3 0  9998
2 35686  98.1014 308.2096 0069043 305.1865  54.2898 14.89352486758715
ASIASAT 5               
1 35696U 09042A   23207.23683314 -.00000292  00000+0  00000+0 0  9990
2 35696   0.0380 254.9924 0001572 208.4631  25.9612  1.00270603 51107
NAVSTAR 64 (USA 206)    
1 35752U 09043A   23207.33922236 -.00000040  00000+0  00000+0 0  9995
2 35752  55.3980  69.3162 0058436  67.4115  84.0081  2.00560219102167
JCSAT-12 (JCSAT-RA)     
1 35755U 09044A   23207.59699881 -.00000313  00000+0  00000+0 0  9997
2 35755   0.0166  86.0722 0002647  30.8504 174.0823  1.00271378 51015
OPTUS D3                
1 35756U 09044B   23207.57985583 -.00000133  00000+0  00000+0 0  9993
2 35756   0.0489 318.5610 0003240 151.2904 198.8967  1.00269036 51049
NIMIQ 5                 
1 35873U 09050A   23206.68266069 -.00000242  00000+0  00000+0 0  9993
2 35873   0.0476 261.2005 0002593 233.7367 341.2517  1.00272159 50758
OCEANSAT-2              
1 35931U 09051A   23207.89783245 -.00000102  00000+0 -43938-4 0  9991
2 35931  98.3105 282.4519 0015432 338.4387  21.6128 13.99365150731587
SWISSCUBE               
1 35932U 09051B   23207.10812927  .00001076  00000+0  24578-3 0  9993
2 35932  98.5166  78.3797 0006231 243.3799 116.6761 14.57826328734883
BEESAT-1                
1 35933U 09051C   23207.89631707  .00001048  00000+0  24008-3 0  9992
2 35933  98.5092  80.4740 0004420 254.8977 105.1732 14.57724469735073
ITUPSAT1                
1 35935U 09051E   23207.89381407  .00000961  00000+0  22564-3 0  9991
2 35935  98.5191  80.4017 0006703 261.5510  98.4928 14.56766973734745
AMAZONAS 2              
1 35942U 09054A   23206.47843448 -.00000268  00000+0  00000+0 0  9991
2 35942   0.0248 153.4495 0005478 335.0493 285.6485  1.00272521 50576
COMSATBW-1              
1 35943U 09054B   23207.80470567  .00000039  00000+0  00000+0 0  9993
2 35943   0.0623  98.3424 0002434  24.8349 173.7652  1.00270080 50701
WORLDVIEW-2 (WV-2)      
1 35946U 09055A   23207.86861068  .00000190  00000+0  77842-4 0  9994
2 35946  98.4492 281.9359 0002068 134.1575 225.9782 14.37461562723909
DMSP 5D-3 F18 (USA 210) 
1 35951U 09057A   23207.83524884  .00000367  00000+0  21678-3 0  9992
2 35951  98.7694 183.4289 0011630  21.7216 338.4448 14.13808699710262
NSS-12                  
1 36032U 09058A   23207.80003119  .00000086  00000+0  00000+0 0  9994
2 36032   0.0408 284.6946 0002779 196.9763 167.5597  1.00272522 50324
THOR 6                  
1 36033U 09058B   23206.96993762  .00000005  00000+0  00000+0 0  9994
2 36033   0.0159 119.6635 0001871   9.7514 162.3242  1.00272431 50405
SMOS                    
1 36036U 09059A   23207.08220384  .00000462  00000+0  16137-3 0  9994
2 36036  98.4437  33.7652 0001370  92.0132 268.1213 14.39778713721349
PROBA-2                 
1 36037U 09059B   23207.89491818  .00000307  00000+0  84133-4 0  9996
2 36037  98.2271  32.0170 0012292 304.9868  55.0174 14.53566974728006
SJ-11-01                
1 36088U 09061A   23207.90968909  .00001025  00000+0  21733-3 0  9991
2 36088  97.9266 210.8321 0012909 109.9005 295.2112 14.61089893730100
COSMOS 2455             
1 36095U 09063A   23207.68732014  .00000003  00000+0  56406-4 0  9993
2 36095  67.1488 301.9020 0007593 246.1534 113.8755 13.96846422697561
INTELSAT 14 (IS-14)     
1 36097U 09064A   23206.41167888 -.00000259  00000+0  00000+0 0  9995
2 36097   0.0024 351.9509 0002542 137.8426 276.2688  1.00271370 49990
EUTELSAT 36B            
1 36101U 09065A   23207.78130779  .00000170  00000+0  00000+0 0  9993
2 36101   0.0651   6.4387 0005040 121.5336 133.3851  1.00271071 50124
INTELSAT 15 (IS-15)     
1 36106U 09067A   23207.82458174 -.00000170  00000+0  00000+0 0  9998
2 36106   0.0222 332.4805 0002440 150.8261 202.9377  1.00270416 30635
WGS F3 (USA 211)        
1 36108U 09068A   23206.48375814 -.00000253  00000+0  00000+0 0  9993
2 36108   0.2741  91.7136 0000916  96.5375 246.0158  1.00271606 35997
YAOGAN 7                
1 36110U 09069A   23207.90629940  .00000617  00000+0  97960-4 0  9996
2 36110  98.1528  76.9445 0025438 190.9045 169.1615 14.75580515733723
COSMOS 2456 [GLONASS-M] 
1 36111U 09070A   23207.35602399 -.00000012  00000+0  00000+0 0  9991
2 36111  64.4751 107.1802 0003666 320.1777 252.1482  2.13099263105902
COSMOS 2457 [GLONASS-M] 
1 36112U 09070B   23207.64442578 -.00000013  00000+0  00000+0 0  9996
2 36112  64.4590 107.0365 0004312 157.8413  46.2089  2.13101414105916
WISE                    
1 36119U 09071A   23207.83420878  .00019611  00000+0  44145-3 0  9999
2 36119  97.1925 240.2143 0000307 103.6772 256.4510 15.43330455757631
YAOGAN 8                
1 36121U 09072A   23207.78189205  .00000205  00000+0  76248-3 0  9991
2 36121 100.2854 127.4579 0020970 176.6035 183.5217 13.05001939650870
XIWANG-1 (HOPE-1)       
1 36122U 09072B   23207.30297544 -.00000005  00000+0  10147-3 0  9991
2 36122 100.2402 169.9509 0007978 129.4710 230.7110 13.16385215653945
HELIOS 2B               
1 36124U 09073A   23207.94316178  .00068147  00000+0  65300-3 0  9990
2 36124  98.1967 206.5375 0110110 141.4003 219.5189 15.58962966730410
DIRECTV 12              
1 36131U 09075A   23207.59708431 -.00000088  00000+0  00000+0 0  9991
2 36131   0.0047 305.9550 0000314 152.8382 317.4665  1.00272614 35969
BEIDOU-2 G1             
1 36287U 10001A   23207.54548375 -.00000267  00000+0  00000+0 0  9997
2 36287   1.9348  50.8886 0004294 333.2827 256.6169  1.00269726 49578
RADUGA-1M 2             
1 36358U 10002A   23207.82468684 -.00000170  00000+0  00000+0 0  9995
2 36358   0.8740  93.3246 0003560  29.2665 203.5753  1.00272729 39497
SDO                     
1 36395U 10005A   23207.27445372 -.00000076  00000+0  00000+0 0  9992
2 36395  32.4513 102.7474 0001026 217.8137 339.5432  1.00269390 49461
INTELSAT 16 (IS-16)     
1 36397U 10006A   23206.54882031 -.00000230  00000+0  00000+0 0  9993
2 36397   0.0228 324.7929 0002546 180.3014 279.2657  1.00271068 49042
COSMOS 2460 [GLONASS-M] 
1 36402U 10007C   23207.50663293 -.00000051  00000+0  00000+0 0  9996
2 36402  65.8963 349.9796 0001987 114.3914 331.8901  2.13106335104216
EWS-G2 (GOES 15)        
1 36411U 10008A   23207.61618661 -.00000104  00000+0  00000+0 0  9997
2 36411   0.4495  95.2244 0001676  76.8354 159.4153  0.99991046 49051
YAOGAN 9A               
1 36413U 10009A   23207.42489404  .00000052  00000+0  13218-3 0  9990
2 36413  63.3754 208.8487 0446605  14.3525 346.9716 13.45297079657785
YAOGAN 9B               
1 36414U 10009B   23207.33844288  .00000055  00000+0  13507-3 0  9990
2 36414  63.3767 208.6675 0447095  13.6433 347.6224 13.45307802657543
YAOGAN 9C               
1 36415U 10009C   23207.93141316  .00000049  00000+0  12852-3 0  9994
2 36415  63.3764 207.7274 0447926  13.9514 347.3423 13.45311706657784
ECHOSTAR 14             
1 36499U 10010A   23207.63322855  .00000016  00000+0  00000+0 0  9996
2 36499   0.0185  59.1670 0002156  63.1114 290.8411  1.00269902 35951
CRYOSAT 2               
1 36508U 10013A   23207.88236876  .00000354  00000+0  87102-4 0  9992
2 36508  92.0199  21.9638 0002583 353.0055   7.1116 14.51904479704812
SES-1                   
1 36516U 10016A   23207.56639642 -.00000099  00000+0  00000+0 0  9991
2 36516   0.0518 281.2333 0002539 196.0558 289.6033  1.00271979 48449
COSMOS 2463             
1 36519U 10017A   23207.31766351  .00000066  00000+0  56392-4 0  9999
2 36519  82.9622 306.1580 0036228 180.3683 282.7895 13.71514715663054
ASTRA 3B                
1 36581U 10021A   23207.92004792  .00000152  00000+0  00000+0 0  9990
2 36581   0.0627  51.2215 0004146  62.4739 185.3157  1.00272488 48286
COMSATBW-2              
1 36582U 10021B   23207.91085793  .00000103  00000+0  00000+0 0  9996
2 36582   0.0203  58.1453 0002372  78.7039 148.5610  1.00273052 48361
NAVSTAR 65 (USA 213)    
1 36585U 10022A   23207.42942368  .00000062  00000+0  00000+0 0  9990
2 36585  54.5821 251.2000 0108551  59.7005 272.9225  2.00559942 96392
